start=new Date('2022-01-28T00:00:00.000Z').valueOf();
sats=[{"EPHEMERIS_TYPE":"0","FILE":"3284946","TLE_LINE1":"1 48011U 21024AL  22027.48380281  .00000667  00000-0  63659-4 0  9992","PERIOD":"95.592","SITE":"AFETR","ARG_OF_PERICENTER":"77.9140","COUNTRY_CODE":"US","ELEMENT_SET_NO":"999","NORAD_CAT_ID":"48011","MEAN_ANOMALY":"282.2069","OBJECT_TYPE":"PAYLOAD","TIME_SYSTEM":"UTC","OBJECT_ID":"2021-024AL","REF_FRAME":"TEME","ECCENTRICITY":"0.00019690","LAUNCH_DATE":"2021-03-24","CLASSIFICATION_TYPE":"U","TLE_LINE2":"2 48011  53.0561 220.2810 0001969  77.9140 282.2069 15.06401967 48420","CENTER_NAME":"EARTH","OBJECT_NAME":"STARLINK-2272","APOAPSIS":"548.571","SEMIMAJOR_AXIS":"6925.343","GP_ID":"194742313","RCS_SIZE":"LARGE","REV_AT_EPOCH":"4842","INCLINATION":"53.0561","BSTAR":"0.00006365900000","MEAN_ELEMENT_THEORY":"SGP4","PERIAPSIS":"545.844","MEAN_MOTION":"15.06401967","MEAN_MOTION_DOT":"0.00000667","RA_OF_ASC_NODE":"220.2810","MEAN_MOTION_DDOT":"0.0000000000000","DECAY_DATE":null,"EPOCH":"2022-01-27T11:36:40.562784"},{"TIME_SYSTEM":"UTC","OBJECT_ID":"2021-024AM","REF_FRAME":"TEME","NORAD_CAT_ID":"48012","MEAN_ANOMALY":"273.0062","OBJECT_TYPE":"PAYLOAD","TLE_LINE2":"2 48012  53.0541 193.4873 0001104  87.1057 273.0062 15.15567033 48305","CENTER_NAME":"EARTH","CLASSIFICATION_TYPE":"U","LAUNCH_DATE":"2021-03-24","ECCENTRICITY":"0.00011040","FILE":"3285203","EPHEMERIS_TYPE":"0","SITE":"AFETR","COUNTRY_CODE":"US","ARG_OF_PERICENTER":"87.1057","ELEMENT_SET_NO":"999","TLE_LINE1":"1 48012U 21024AM  22027.77344282  .00162000  00000-0  82654-2 0  9990","PERIOD":"95.014","MEAN_MOTION_DOT":"0.00162000","MEAN_ELEMENT_THEORY":"SGP4","PERIAPSIS":"518.498","MEAN_MOTION":"15.15567033","EPOCH":"2022-01-27T18:33:45.459648","MEAN_MOTION_DDOT":"0.0000000000000","RA_OF_ASC_NODE":"193.4873","DECAY_DATE":null,"APOAPSIS":"520.021","OBJECT_NAME":"STARLINK-2216","SEMIMAJOR_AXIS":"6897.395","GP_ID":"194751486","INCLINATION":"53.0541","BSTAR":"0.00826540000000","RCS_SIZE":"LARGE","REV_AT_EPOCH":"4830"},{"EPOCH":"2022-01-27T12:09:11.526624","RA_OF_ASC_NODE":"205.1861","MEAN_MOTION_DDOT":"0.0000000000000","DECAY_DATE":null,"MEAN_MOTION_DOT":"-0.00000954","MEAN_ELEMENT_THEORY":"SGP4","MEAN_MOTION":"15.06392776","PERIAPSIS":"545.862","INCLINATION":"53.0538","BSTAR":"-0.00004517600000","REV_AT_EPOCH":"4858","RCS_SIZE":"LARGE","SEMIMAJOR_AXIS":"6925.371","OBJECT_NAME":"STARLINK-2243","APOAPSIS":"548.609","GP_ID":"194741314","TLE_LINE2":"2 48013  53.0538 205.1861 0001983  73.7818 286.3389 15.06392776 48580","CENTER_NAME":"EARTH","CLASSIFICATION_TYPE":"U","LAUNCH_DATE":"2021-03-24","ECCENTRICITY":"0.00019830","OBJECT_ID":"2021-024AN","TIME_SYSTEM":"UTC","REF_FRAME":"TEME","MEAN_ANOMALY":"286.3389","NORAD_CAT_ID":"48013","OBJECT_TYPE":"PAYLOAD","COUNTRY_CODE":"US","ARG_OF_PERICENTER":"73.7818","SITE":"AFETR","ELEMENT_SET_NO":"999","PERIOD":"95.593","TLE_LINE1":"1 48013U 21024AN  22027.50638341 -.00000954  00000-0 -45176-4 0  9995","EPHEMERIS_TYPE":"0","FILE":"3284946"},{"GP_ID":"194742570","APOAPSIS":"550.956","OBJECT_NAME":"STARLINK-2283","SEMIMAJOR_AXIS":"6927.860","BSTAR":"0.00015070000000","INCLINATION":"53.0534","RCS_SIZE":"LARGE","REV_AT_EPOCH":"4914","MEAN_MOTION_DOT":"0.00001917","PERIAPSIS":"548.494","MEAN_MOTION":"15.05580967","MEAN_ELEMENT_THEORY":"SGP4","EPOCH":"2022-01-27T12:57:24.605568","DECAY_DATE":null,"MEAN_MOTION_DDOT":"0.0000000000000","RA_OF_ASC_NODE":"168.9932","FILE":"3284946","EPHEMERIS_TYPE":"0","ELEMENT_SET_NO":"999","SITE":"AFETR","ARG_OF_PERICENTER":"74.4523","COUNTRY_CODE":"US","TLE_LINE1":"1 48014U 21024AP  22027.53986812  .00001917  00000-0  15070-3 0  9995","PERIOD":"95.644","REF_FRAME":"TEME","TIME_SYSTEM":"UTC","OBJECT_ID":"2021-024AP","OBJECT_TYPE":"PAYLOAD","NORAD_CAT_ID":"48014","MEAN_ANOMALY":"285.6662","CENTER_NAME":"EARTH","TLE_LINE2":"2 48014  53.0534 168.9932 0001777  74.4523 285.6662 15.05580967 49143","CLASSIFICATION_TYPE":"U","LAUNCH_DATE":"2021-03-24","ECCENTRICITY":"0.00017770"},{"LAUNCH_DATE":"2021-03-24","CLASSIFICATION_TYPE":"U","ECCENTRICITY":"0.00015470","TLE_LINE2":"2 48016  53.0548 155.0535 0001547  71.0819 289.0337 15.06395237 49335","CENTER_NAME":"EARTH","NORAD_CAT_ID":"48016","MEAN_ANOMALY":"289.0337","OBJECT_TYPE":"PAYLOAD","TIME_SYSTEM":"UTC","OBJECT_ID":"2021-024AR","REF_FRAME":"TEME","TLE_LINE1":"1 48016U 21024AR  22027.53214683  .00002011  00000-0  15391-3 0  9999","PERIOD":"95.592","SITE":"AFETR","ARG_OF_PERICENTER":"71.0819","COUNTRY_CODE":"US","ELEMENT_SET_NO":"999","EPHEMERIS_TYPE":"0","FILE":"3284946","RA_OF_ASC_NODE":"155.0535","MEAN_MOTION_DDOT":"0.0000000000000","DECAY_DATE":null,"EPOCH":"2022-01-27T12:46:17.486112","MEAN_ELEMENT_THEORY":"SGP4","PERIAPSIS":"546.157","MEAN_MOTION":"15.06395237","MEAN_MOTION_DOT":"0.00002011","RCS_SIZE":"LARGE","REV_AT_EPOCH":"4933","INCLINATION":"53.0548","BSTAR":"0.00015391000000","APOAPSIS":"548.300","OBJECT_NAME":"STARLINK-2284","SEMIMAJOR_AXIS":"6925.363","GP_ID":"194742813"},{"REF_FRAME":"TEME","OBJECT_ID":"2021-024AS","TIME_SYSTEM":"UTC","OBJECT_TYPE":"PAYLOAD","MEAN_ANOMALY":"289.7730","NORAD_CAT_ID":"48017","CENTER_NAME":"EARTH","TLE_LINE2":"2 48017  53.0499 214.1966 0001077  70.3389 289.7730 15.38219390 48016","CLASSIFICATION_TYPE":"U","LAUNCH_DATE":"2021-03-24","ECCENTRICITY":"0.00010770","EPHEMERIS_TYPE":"0","FILE":"3285317","ELEMENT_SET_NO":"999","COUNTRY_CODE":"US","ARG_OF_PERICENTER":"70.3389","SITE":"AFETR","TLE_LINE1":"1 48017U 21024AS  22027.82900122  .00154368  00000-0  39687-2 0  9998","PERIOD":"93.615","MEAN_MOTION_DOT":"0.00154368","MEAN_MOTION":"15.38219390","PERIAPSIS":"450.641","MEAN_ELEMENT_THEORY":"SGP4","EPOCH":"2022-01-27T19:53:45.705408","DECAY_DATE":null,"MEAN_MOTION_DDOT":"0.0000000000000","RA_OF_ASC_NODE":"214.1966","GP_ID":"194754001","SEMIMAJOR_AXIS":"6829.512","APOAPSIS":"452.112","OBJECT_NAME":"STARLINK-2239","BSTAR":"0.00396870000000","INCLINATION":"53.0499","REV_AT_EPOCH":"4801","RCS_SIZE":"LARGE"},{"MEAN_ELEMENT_THEORY":"SGP4","PERIAPSIS":"545.707","MEAN_MOTION":"15.06400248","MEAN_MOTION_DOT":"-0.00000715","RA_OF_ASC_NODE":"223.9122","MEAN_MOTION_DDOT":"0.0000000000000","DECAY_DATE":null,"EPOCH":"2022-01-27T18:53:52.610208","OBJECT_NAME":"STARLINK-2282","APOAPSIS":"548.719","SEMIMAJOR_AXIS":"6925.348","GP_ID":"194754005","RCS_SIZE":"LARGE","REV_AT_EPOCH":"4787","INCLINATION":"53.0535","BSTAR":"-0.00002909100000","NORAD_CAT_ID":"48018","MEAN_ANOMALY":"284.4994","OBJECT_TYPE":"PAYLOAD","TIME_SYSTEM":"UTC","OBJECT_ID":"2021-024AT","REF_FRAME":"TEME","CLASSIFICATION_TYPE":"U","LAUNCH_DATE":"2021-03-24","ECCENTRICITY":"0.00021750","TLE_LINE2":"2 48018  53.0535 223.9122 0002175  75.6236 284.4994 15.06400248 47875","CENTER_NAME":"EARTH","FILE":"3285317","EPHEMERIS_TYPE":"0","TLE_LINE1":"1 48018U 21024AT  22027.78741447 -.00000715  00000-0 -29091-4 0  9995","PERIOD":"95.592","SITE":"AFETR","COUNTRY_CODE":"US","ARG_OF_PERICENTER":"75.6236","ELEMENT_SET_NO":"999"},{"GP_ID":"194754323","OBJECT_NAME":"STARLINK-2285","APOAPSIS":"548.660","SEMIMAJOR_AXIS":"6925.385","RCS_SIZE":"LARGE","REV_AT_EPOCH":"4802","BSTAR":"-0.00006479000000","INCLINATION":"53.0547","PERIAPSIS":"545.839","MEAN_MOTION":"15.06388248","MEAN_ELEMENT_THEORY":"SGP4","MEAN_MOTION_DOT":"-0.00001246","DECAY_DATE":null,"MEAN_MOTION_DDOT":"0.0000000000000","RA_OF_ASC_NODE":"213.7718","EPOCH":"2022-01-27T19:44:19.770720","EPHEMERIS_TYPE":"0","FILE":"3285317","TLE_LINE1":"1 48019U 21024AU  22027.82245105 -.00001246  00000-0 -64790-4 0  9996","PERIOD":"95.593","ELEMENT_SET_NO":"999","SITE":"AFETR","ARG_OF_PERICENTER":"77.3611","COUNTRY_CODE":"US","OBJECT_TYPE":"PAYLOAD","NORAD_CAT_ID":"48019","MEAN_ANOMALY":"282.7605","REF_FRAME":"TEME","TIME_SYSTEM":"UTC","OBJECT_ID":"2021-024AU","LAUNCH_DATE":"2021-03-24","CLASSIFICATION_TYPE":"U","ECCENTRICITY":"0.00020370","CENTER_NAME":"EARTH","TLE_LINE2":"2 48019  53.0547 213.7718 0002037  77.3611 282.7605 15.06388248 48023"},{"MEAN_MOTION":"15.06402104","PERIAPSIS":"546.020","MEAN_ELEMENT_THEORY":"SGP4","MEAN_MOTION_DOT":"0.00000501","DECAY_DATE":null,"MEAN_MOTION_DDOT":"0.0000000000000","RA_OF_ASC_NODE":"169.9185","EPOCH":"2022-01-27T13:29:25.389888","GP_ID":"194742314","SEMIMAJOR_AXIS":"6925.342","APOAPSIS":"548.394","OBJECT_NAME":"STARLINK-2294","REV_AT_EPOCH":"4907","RCS_SIZE":"LARGE","BSTAR":"0.00005254700000","INCLINATION":"53.0536","OBJECT_TYPE":"PAYLOAD","MEAN_ANOMALY":"277.8419","NORAD_CAT_ID":"48020","REF_FRAME":"TEME","OBJECT_ID":"2021-024AV","TIME_SYSTEM":"UTC","CLASSIFICATION_TYPE":"U","LAUNCH_DATE":"2021-03-24","ECCENTRICITY":"0.00017140","CENTER_NAME":"EARTH","TLE_LINE2":"2 48020  53.0536 169.9185 0001714  82.2765 277.8419 15.06402104 49071","EPHEMERIS_TYPE":"0","FILE":"3284946","TLE_LINE1":"1 48020U 21024AV  22027.56209942  .00000501  00000-0  52547-4 0  9996","PERIOD":"95.592","ELEMENT_SET_NO":"999","COUNTRY_CODE":"US","ARG_OF_PERICENTER":"82.2765","SITE":"AFETR"},{"EPOCH":"2022-01-27T16:17:18.345120","RA_OF_ASC_NODE":"174.4077","MEAN_MOTION_DDOT":"0.0000000000000","DECAY_DATE":null,"MEAN_MOTION_DOT":"0.00000412","MEAN_ELEMENT_THEORY":"SGP4","MEAN_MOTION":"15.06409081","PERIAPSIS":"545.673","INCLINATION":"53.0569","BSTAR":"0.00004659500000","REV_AT_EPOCH":"4856","RCS_SIZE":"LARGE","SEMIMAJOR_AXIS":"6925.321","APOAPSIS":"548.699","OBJECT_NAME":"STARLINK-2301","GP_ID":"194751519","TLE_LINE2":"2 48021  53.0569 174.4077 0002185  86.1560 273.9679 15.06409081 48567","CENTER_NAME":"EARTH","LAUNCH_DATE":"2021-03-24","CLASSIFICATION_TYPE":"U","ECCENTRICITY":"0.00021850","OBJECT_ID":"2021-024AW","TIME_SYSTEM":"UTC","REF_FRAME":"TEME","MEAN_ANOMALY":"273.9679","NORAD_CAT_ID":"48021","OBJECT_TYPE":"PAYLOAD","COUNTRY_CODE":"US","ARG_OF_PERICENTER":"86.1560","SITE":"AFETR","ELEMENT_SET_NO":"999","TLE_LINE1":"1 48021U 21024AW  22027.67868455  .00000412  00000-0  46595-4 0  9996","PERIOD":"95.592","FILE":"3285222","EPHEMERIS_TYPE":"0"}];
